C/2024 E2 (Bok),e,155.6500,135.6545,358.1402,51.49581,0.0026671,0.85056702,1.6638,07/10.0/2025,2000,g  8.0,4.0
# From MPEC 2024-JU4
P/2024 F1 (PANSTARRS),e,7.0052,251.5413,229.5777,3.444057,0.1542050,0.45998673,96.1029,07/10.0/2025,2000,g 16.0,4.0
# From MPEC 2025-N64
C/2024 F2 (PANSTARRS),e,13.7430,138.9399,112.8991,9.947286,0.0314157,0.60111718,10.8687,07/10.0/2025,2000,g 11.0,4.0
# From MPEC 2024-UA9
P/2024 FG9 (Nanshan-Hahn),e,1.7312,253.0426,245.9340,3.257642,0.1676290,0.50992627,69.6656,07/10.0/2025,2000,g 14.0,4.0
# From MPC184412
C/2024 G1 (Wierzchos),e,95.3932,30.6053,128.2237,122.1951,0.0007297,0.96783738,0.1911,07/10.0/2025,2000,g 10.0,4.0
# From MPEC 2025-N86
C/2024 G2 (ATLAS),e,122.1250,171.3970,328.7381,731.4994,0.0000498,0.99268866,0.0000,06/13.5385/2025,2000,g  7.0,4.0
# From MPC184412
C/2024 G3 (ATLAS),h,01/13.4265/2025,116.8475,220.3462,108.1282,1.000006,0.093555,2000,9.0,4.0
# From MPEC 2025-N86
C/2024 G4 (PANSTARRS),e,33.0265,152.9812,131.4204,3181,0.0000055,0.99845954,0.0000,03/21.6096/2026,2000,g  8.0,4.0
# From MPEC 2024-JC6
C/2024 G5 (Leonard),e,50.3869,316.3923,209.5805,572.8707,0.0000719,0.99484517,0.0000,09/07.0576/2024,2000,g 13.0,4.0
# From MPEC 2025-N86
C/2024 G6 (ATLAS),h,02/20.7324/2026,120.4553,250.9519,23.4381,1.002169,6.429843,2000,5.5,4.0
# From MPC184412
C/2024 G7 (ATLAS),h,02/10.1011/2025,131.5150,191.9634,289.6566,1.001914,6.027651,2000,7.0,4.0
# From MPEC 2024-Q05
A/2024 G8,e,97.4142,11.2487,249.1570,141.5123,0.0005855,0.99171471,0.0000,06/15.5816/2024,2000,g 20.0,2.0
# From MPEC 2024-JU4
P/2024 J1 (PANSTARRS),e,13.1593,321.9378,200.3656,3.808677,0.1325998,0.30773460,80.4463,07/10.0/2025,2000,g 14.5,4.0
# From MPC182882
C/2024 J2 (Wierzchos),e,79.2970,189.0592,143.1612,147.1797,0.0005520,0.98769596,0.0000,03/19.7850/2025,2000,g 11.5,4.0
# From MPEC 2025-N86
C/2024 J3 (ATLAS),h,11/25.3371/2026,75.6403,285.9613,74.0883,1.000715,3.865227,2000,5.0,4.0
# From MPEC 2025-N86
C/2024 J4 (Lemmon),e,117.5294,19.3067,127.8587,6352,0.0000019,0.99910348,0.0000,04/26.0047/2025,2000,g  8.0,4.0
# From MPEC 2024-LB4
P/2024 K1 (PANSTARRS),e,1.7862,251.6891,351.9251,6.844786,0.0550382,0.49517308,23.5051,07/10.0/2025,2000,g 13.5,4.0
# From MPEC 2025-MC0
C/2024 L1 (PANSTARRS),e,99.1650,45.1395,171.7945,11.46532,0.0253878,0.53354104,1.9766,07/10.0/2025,2000,g 10.0,4.0
# From MPEC 2024-P23
C/2024 L2 (PANSTARRS),e,139.4875,266.2859,345.6164,472.6319,0.0000959,0.98238314,0.0000,06/12.7787/2025,2000,g  7.5,3.2
# From MPEC 2024-RQ6
C/2024 L3 (PANSTARRS),h,11/24.1409/2023,111.5922,294.9955,59.0761,1.003815,6.857928,2000,9.5,4.0
# From MPEC 2025-N86
C/2024 L5 (ATLAS),h,03/10.3955/2025,166.5729,139.1774,290.5155,1.037108,3.432421,2000,9.0,4.0
# From MPEC 2025-N64
C/2024 M1 (ATLAS),e,73.7095,76.2143,345.5840,29.79302,0.0060608,0.94283129,1.4062,07/10.0/2025,2000,g 12.0,4.0
# From MPEC 2025-N64
C/2024 N1 (PANSTARRS),h,10/18.8488/2025,88.7813,323.0215,91.2504,1.001187,4.398366,2000,10.5,4.0
# From MPEC 2025-N86
C/2024 N3 (Sarneczky),h,04/11.4486/2025,88.7290,82.6088,86.8863,1.001419,5.014586,2000,8.0,4.0
# From MPEC 2025-MC0
C/2024 N4 (Sarneczky),h,01/10.2161/2025,49.7748,339.6566,116.7091,1.004373,5.397827,2000,7.5,4.0
# From MPEC 2024-PC5
C/2024 O1 (PANSTARRS),h,01/28.5071/2023,59.0794,303.3419,349.8867,1.000607,6.606750,2000,8.5,4.0
# From MPEC 2024-UA9
P/2024 O2 (PANSTARRS),e,28.9768,6.8057,310.7852,7.381759,0.0491433,0.49907577,21.9106,07/10.0/2025,2000,g 12.0,4.0
# From MPEC 2025-A40
P/2024 OC2 (PANSTARRS),e,7.6712,136.6165,258.5385,2.625478,0.2316816,0.77417854,63.4081,07/10.0/2025,2000,g 20.5,4.0
# From MPEC 2025-MC0
C/2024 PN7 (PANSTARRS),e,101.2092,358.5842,74.2735,67.27833,0.0017860,0.97733933,0.0000,12/06.4340/2024,2000,g 15.2,4.0
# From MPEC 2024-UQ8
P/2024 Q1 (PANSTARRS),e,5.0115,23.1076,284.5397,3.521445,0.1491498,0.53486360,58.2200,07/10.0/2025,2000,g 17.0,4.0
# From MPEC 2025-MC0
C/2024 Q3 (PANSTARRS),h,03/05.2193/2025,121.3779,337.2875,70.1278,1.001487,2.091560,2000,15.0,4.0
# From MPC182882
C/2024 Q4 (PANSTARRS),e,3.3150,324.2717,133.0523,671.7988,0.0000566,0.99193340,0.0000,11/12.1831/2024,2000,g 10.0,4.0
# From MPEC 2024-TP3
P/2024 R1 (PANSTARRS),e,12.7354,84.9832,230.7008,3.455272,0.1534549,0.49312849,59.7122,07/10.0/2025,2000,g 18.0,4.0
# From MPC182883
P/2024 R2 (PANSTARRS),e,15.1158,193.0069,203.9275,3.149089,0.1763708,0.26870540,49.6134,07/10.0/2025,2000,g 15.5,4.0
# From MPEC 2024-YC7
P/2024 R3 (PANSTARRS),e,14.7161,33.2346,309.3285,3.201596,0.1720499,0.26730737,73.5570,07/10.0/2025,2000,g 15.0,4.0
# From MPEC 2025-N86
C/2024 R4 (PANSTARRS),h,10/26.6482/2027,95.3632,345.9353,108.9933,1.002604,4.409102,2000,6.5,4.0
# From MPC182883
C/2024 S1 (ATLAS),e,142.0380,347.6309,69.5543,87.09873,0.0012125,0.99990833,0.0000,10/28.4778/2024,2000,g 15.5,4.0
# From MPEC 2025-A40
P/2024 S2 (Rankin),e,7.5259,8.3374,49.1651,5.037999,0.0871599,0.59356946,25.8615,07/10.0/2025,2000,g 15.0,4.0
# From MPC182883
P/2024 T1 (Rankin),e,17.6202,279.7107,164.8638,6.598919,0.0581427,0.65342744,16.4319,07/10.0/2025,2000,g 14.5,4.0
# From MPC184413
P/2024 T2 (Rankin),e,12.9290,113.0614,343.8266,6.171367,0.0642883,0.68041078,13.7367,07/10.0/2025,2000,g 16.0,4.0
# From MPC182883
C/2024 T3 (PANSTARRS),e,53.4706,74.8336,336.8857,86.99827,0.0012146,0.95728485,0.1418,07/10.0/2025,2000,g 11.5,4.0
# From MPEC 2025-N86
C/2024 T5 (ATLAS),h,05/06.1732/2027,52.3868,100.6799,352.4382,1.002287,3.841395,2000,5.5,4.0
# From MPC182883
C/2024 U1 (PANSTARRS),e,128.7551,270.2638,188.0820,484.4740,0.0000924,0.99001755,0.0000,06/30.4380/2024,2000,g 10.0,4.0
# From MPC182883
A/2024 U2,h,01/14.4644/2026,120.6715,56.0700,29.7750,1.003460,8.180801,2000,12.1,2.0
# From MPEC 2025-MC0
C/2024 V1 (Borisov),e,54.6259,328.1947,168.6684,232.5095,0.0002780,0.99002848,0.0000,04/04.1129/2025,2000,g 14.8,4.0
# From MPEC 2024-YC7
C/2024 V2 (Sarneczky),e,95.9720,102.2016,13.7242,39.29864,0.0040007,0.96836812,0.9929,07/10.0/2025,2000,g 19.0,4.0
# From MPC182883
C/2024 W1 (PANSTARRS),e,83.2005,310.7271,256.7396,44.87960,0.0032782,0.94294218,0.3701,07/10.0/2025,2000,g 15.0,4.0
# From MPC182883
A/2024 W2,h,02/27.4148/2025,116.6148,241.9380,168.0032,1.002545,3.720674,2000,15.6,2.0
# From MPC182884
C/2024 X1 (Fazekas),e,6.4643,351.9912,124.3630,9.462297,0.0338617,0.59664421,359.1714,07/10.0/2025,2000,g 11.3,4.0
# From MPEC 2025-N64
C/2024 X2 (ATLAS),e,109.2213,122.5228,315.7824,50.56249,0.0027413,0.92729194,0.0058,07/10.0/2025,2000,g  9.6,4.0
# From MPEC 2025-MC0
P/2024 X3 (PANSTARRS),e,2.9723,113.3647,352.9474,6.993504,0.0532920,0.62618797,16.3721,07/10.0/2025,2000,g 14.6,4.0
# From MPEC 2025-A40
C/2024 X4 (PANSTARRS),e,34.6688,258.9435,153.2914,10.06351,0.0308731,0.64179964,358.3355,07/10.0/2025,2000,g 12.6,4.0
# From MPC182884
C/2024 Y1 (Masek),e,64.7704,112.5424,238.1405,62.39922,0.0019996,0.98682384,0.0000,11/26.8846/2024,2000,g 17.6,4.0
# From MPC182884
A/2025 A1,h,03/12.3773/2027,33.4402,101.3305,68.0794,1.004231,5.341601,2000,11.8,2.0
# From MPC184414
P/2025 A2 (PANSTARRS),e,20.7342,189.3190,278.0452,5.083818,0.0859843,0.32208483,23.8482,07/10.0/2025,2000,g 13.2,4.0
# From MPC184414
C/2025 A3 (Tsuchinshan),e,9.9766,322.4332,222.3091,10.19352,0.0302843,0.43176859,352.4876,07/10.0/2025,2000,g  9.0,4.0
# From MPEC 2025-MC0
C/2025 A4 (PANSTARRS),e,32.0254,69.9136,102.7981,11.05260,0.0268230,0.65399638,4.7700,07/10.0/2025,2000,g 12.4,4.0
# From MPC184414
C/2025 A6 (Lemmon),e,143.6641,108.0969,132.9608,123.3828,0.0007192,0.99570451,0.0000,11/08.5403/2025,2000,g 13.2,4.0
# From MPC184414
A/2025 A7,e,133.6506,348.8456,195.5700,4539,0.0000032,0.99936478,0.0000,03/28.1151/2025,2000,g 14.0,2.0
# From MPC182885
C/2025 B1 (PANSTARRS),h,06/26.7700/2025,39.6805,102.8414,23.5261,1.000749,3.530889,2000,12.0,4.0
# From MPC184414
C/2025 B2 (Borisov),h,09/10.0224/2026,91.7516,84.8733,78.7310,1.000134,8.244780,2000,6.2,4.0
# From MPEC 2025-MC0
P/2025 C1 (ATLAS),e,7.5170,9.1023,186.8035,4.195624,0.1146857,0.34549377,17.5958,07/10.0/2025,2000,g 10.8,4.0
# From MPEC 2025-MC0
C/2025 D1 (Groeller),h,05/20.2106/2028,84.4630,312.8991,185.8970,1.002966,14.118630,2000,1.2,4.0
# From MPC182885
P/2025 D2 (PANSTARRS),e,5.3344,256.7338,314.0511,8.921915,0.0369843,0.17880331,315.0901,07/10.0/2025,2000,g  8.2,4.0
# From MPEC 2025-MC0
P/2025 D3 (PANSTARRS),e,9.6439,186.6360,294.4760,3.967052,0.1247390,0.25244601,43.5635,07/10.0/2025,2000,g 14.7,4.0
# From MPEC 2025-N64
P/2025 D4 (ATLAS),e,15.9404,233.1200,332.8887,8.904030,0.0370957,0.63444264,5.4054,07/10.0/2025,2000,g 13.2,4.0
# From MPC184415
C/2025 D5 (PANSTARRS),e,73.3810,0.7377,211.4931,3328,0.0000051,0.99939532,0.0000,05/13.2920/2025,2000,g 17.6,4.0
# From MPC184415
C/2025 D6 (ATLAS),e,145.7902,151.4874,285.4052,1583,0.0000156,0.99841852,0.0000,12/11.3857/2024,2000,g 13.2,4.0
# From MPC184415
C/2025 E1 (PANSTARRS),e,69.0651,344.5966,274.4212,1451,0.0000178,0.99724438,0.0000,09/23.7420/2026,2000,g  9.7,4.0
# From MPEC 2025-MC0
C/2025 F1 (ATLAS),e,109.2370,122.7051,334.2286,290.0587,0.0001995,0.99631127,0.0000,04/20.4728/2025,2000,g 18.0,4.0
# From MPC184415
C/2025 F2 (SWAN),h,05/01.1613/2025,90.3649,329.8408,153.8369,1.000100,0.333494,2000,11.2,4.0
# From MPEC 2025-N86
C/2025 J1 (Borisov),e,95.4455,273.9744,166.6175,1104,0.0000269,0.99675533,0.0000,06/11.8147/2026,2000,g  9.1,4.0
# From MPEC 2025-N86
C/2025 K1 (ATLAS),h,10/08.4415/2025,147.8649,97.5564,271.0278,1.000252,0.334173,2000,12.2,4.0
# From MPEC 2025-MC0
C/2025 K2 (PANSTARRS),e,113.9940,113.8363,232.4535,25.86744,0.0074916,0.88927747,359.1968,07/10.0/2025,2000,g 13.7,4.0
# From MPEC 2025-L43
C/2025 K3 (PANSTARRS),h,12/13.7715/2028,104.9335,350.6208,188.5953,1.001671,3.468845,2000,6.4,4.0
# From MPEC 2025-N64
C/2025 K4 (Siverd),e,38.4993,297.1568,326.5443,40.39642,0.0038387,0.93728044,359.9335,07/10.0/2025,2000,g 14.1,4.0
# From MPEC 2025-N86
C/2025 L1 (ATLAS),h,01/12.7377/2026,114.1372,208.1066,341.2572,1.001444,1.679468,2000,11.4,4.0
# From MPEC 2025-N86
C/2025 L2,e,86.5808,134.9843,232.6482,496.3297,0.0000891,0.99429108,0.0000,12/20.6785/2025,2000,g 11.7,4.0
